OBJECT_NAME,OBJECT_ID,EPOCH,MEAN_MOTION,ECCENTRICITY,INCLINATION,RA_OF_ASC_NODE,ARG_OF_PERICENTER,MEAN_ANOMALY,EPHEMERIS_TYPE,CLASSIFICATION_TYPE,NORAD_CAT_ID,ELEMENT_SET_NO,REV_AT_EPOCH,BSTAR,MEAN_MOTION_DOT,MEAN_MOTION_DDOT
SKY MEXICO-1,2015-026B,2026-03-01T10:21:25.589088,1.00267710,.0002242,0.0266,137.8747,219.7655,238.1871,0,U,40664,999,3937,0,0,0
METEOSAT-11 (MSG-4),2015-034A,2026-03-01T08:50:38.692032,1.00265141,.0001794,2.9298,71.7010,270.4204,319.1619,0,U,40732,999,613,0,.45E-6,0
STAR ONE C4,2015-034B,2026-03-01T11:04:24.989376,1.00269973,.0002974,0.0403,357.6419,358.0342,259.6609,0,U,40733,999,3893,0,-.283E-5,0
WGS F7 (USA 263),2015-036A,2026-03-01T11:39:46.020384,1.00264246,.0000393,0.0154,114.3627,337.0538,57.8002,0,U,40746,999,3879,0,-.2E-7,0
INTELSAT 34 (IS-34),2015-039A,2026-03-01T10:28:02.453664,1.00273289,.0000086,0.0149,194.5358,151.5786,274.6253,0,U,40874,999,3854,0,-.304E-5,0
EUTELSAT 8 WEST B,2015-039B,2026-03-01T08:58:55.999200,1.00271489,.0003837,0.0663,349.9344,350.7943,305.1665,0,U,40875,999,3857,0,-.84E-6,0
GSAT-6,2015-041A,2026-03-01T12:08:54.219840,1.00269124,.0003179,1.6401,84.0199,261.2551,78.7151,0,U,40880,999,3851,0,-.177E-5,0
INMARSAT 5-F3,2015-042A,2026-03-01T08:53:20.138208,1.00269615,.0001727,0.0177,123.1298,256.0619,92.9130,0,U,40882,999,3849,0,.32E-6,0
TJS-1,2015-046A,2026-03-01T12:10:12.550080,1.00271212,.0004178,0.0454,85.5819,289.7020,121.6024,0,U,40892,999,3849,0,-.174E-5,0
EXPRESS-AM8,2015-048A,2026-02-28T15:50:17.087136,1.00269735,.00002136,0.0230,152.9676,152.2105,76.8771,0,U,40895,999,3825,0,0,0
SKY MUSTER 1 (NBN1A),2015-054A,2026-03-01T09:41:14.439840,1.00270070,.0001765,0.0172,162.4290,173.1339,109.1950,0,U,40940,999,3817,0,0,0
ARSAT 2,2015-054B,2026-03-01T10:20:48.146784,1.00271340,.0002111,0.0323,74.8892,253.4194,265.0969,0,U,40941,999,3822,0,-.243E-5,0
MORELOS 3,2015-056A,2026-03-01T12:16:21.980928,1.00272188,.0002859,3.1065,12.0119,2.6374,215.6326,0,U,40946,999,3820,0,-.59E-6,0
APSTAR-9,2015-059A,2026-03-01T13:16:24.292416,1.00271908,.0002235,0.0487,315.6329,303.5732,241.2438,0,U,40982,999,3804,0,-.284E-5,0
TURKSAT 4B,2015-060A,2026-03-01T10:58:07.070592,1.00269442,.0002356,0.0161,223.3755,109.3620,41.0149,0,U,40984,999,3801,0,.97E-6,0
ZHONGXING-2C,2015-063A,2026-03-01T09:30:37.958688,1.00274703,.0007504,0.0231,201.6278,25.3315,178.2955,0,U,41021,999,3789,0,-.342E-5,0
GSAT-15,2015-065A,2026-03-01T12:17:25.438272,1.00269657,.0000759,0.0966,270.0443,71.3012,95.8011,0,U,41028,999,3771,0,-.276E-5,0
BADR-7 (ARABSAT-6B),2015-065B,2026-03-01T07:25:57.412128,1.00269761,.0003708,0.0329,214.9648,50.0801,31.5259,0,U,41029,999,3768,0,.126E-5,0
LAOSAT 1,2015-067A,2026-03-01T09:37:52.264704,1.00274405,.0002182,0.0410,302.2030,358.2683,131.6655,0,U,41034,999,3777,0,-.361E-5,0
TELSTAR 12V,2015-068A,2026-03-01T10:22:38.662752,1.00271305,.0002632,0.0126,109.9177,231.9111,318.0452,0,U,41036,999,3754,0,-.137E-5,0
ELEKTRO-L 2,2015-074A,2026-03-01T08:57:03.678336,1.00270670,.0003479,6.4225,71.8480,234.1402,332.9412,0,U,41105,999,3742,0,-.133E-5,0
COSMOS 2513,2015-075A,2026-02-28T09:26:29.296896,1.00271387,.00023722,0.0449,105.8732,212.0412,62.1356,0,U,41121,999,3745,0,-.155E-5,0
EXPRESS-AMU1,2015-082A,2026-03-01T08:26:38.539680,1.00268077,.000333,0.0266,141.9223,182.3462,357.6564,0,U,41191,999,3718,0,0,0
GAOFEN-4,2015-083A,2026-03-01T11:14:05.538624,1.00270561,.0003687,0.3713,83.7669,87.5138,262.1855,0,U,41194,999,3744,0,-.353E-5,0
BELINTERSAT-1,2016-001A,2026-03-01T10:58:37.022016,1.00273961,.0001396,0.0582,281.5868,56.7372,37.0930,0,U,41238,999,3715,0,.88E-6,0
IRNSS-1E,2016-003A,2026-02-20T14:47:11.359680,1.00267075,.00183295,32.9803,61.4290,191.6255,230.9097,0,U,41241,999,3691,0,-.285E-5,0
EUTELSAT 9B,2016-005A,2026-03-01T08:50:38.692032,1.00272656,.0004575,0.0405,71.2519,246.6923,342.8503,0,U,41310,999,3703,0,.43E-6,0
SES-9,2016-013A,2026-03-01T09:32:07.814688,1.00271453,.0001379,0.0374,293.5424,95.0708,21.8884,0,U,41380,999,3635,0,-.363E-5,0
EUTELSAT 65 WEST A,2016-014A,2026-03-01T10:25:17.717376,1.00273080,.00023,0.0658,37.0925,293.5071,279.7410,0,U,41382,999,3645,0,-.295E-5,0
IRNSS-1F,2016-015A,2026-03-01T05:45:07.081920,1.00269565,.0019258,5.0765,99.3499,187.7673,350.6178,0,U,41384,999,3658,0,.14E-5,0
